{"fetched_at":"2026-05-25T17:47:42Z","count":15616,"tles":[{"name":"FENGYUN 1C DEB","line1":"1 30597U 99025AMC 26104.33292641  .00050533  00000+0  27452-2 0  9999","line2":"2 30597  98.9467  64.4354 0036055 123.2693 237.1997 15.13761994  3568","category":"Weather"},{"name":"IRIDIUM 33 DEB","line1":"1 34103U 97051DN  23178.86255998  .00044012  00000+0  52999-2 0  9992","line2":"2 34103  86.3307  12.3663 0022403 154.8729 271.1383 14.83491702759036","category":"Other"},{"name":"CZ-3B R/B","line1":"1 62805U 25017B   25051.23478839  .00147253 -14005-7  15641-2 0  9992","line2":"2 62805  28.4309 342.4849 7197023 196.8797 113.0755  2.44203570   660","category":"Other"},{"name":"STARLINK-1776","line1":"1 46682U 20073N   23362.11472430  .00020287  00000+0  13763-2 0  9996","line2":"2 46682  53.0539 259.5200 0001399 136.2249 223.8851 15.06416688176542","category":"Starlink"},{"name":"INTELSAT 3-F7","line1":"1 04376U 70032A   26104.35462135 -.00000354  00000+0  00000+0 0  9995","line2":"2 04376   2.2642  88.9863 0004213 234.7399 125.7023  1.00349128 46724","category":"Other"},{"name":"COSMOS 2251 DEB","line1":"1 37296U 93036BJL 23176.73702097  .00023179  00000+0  47809-2 0  9993","line2":"2 37296  73.8385 323.8197 0061694  63.5473 297.2002 14.59158448684481","category":"Other"},{"name":"GSAT0224 (GALILEO 28)","line1":"1 49810U 21116B   26143.16836869 -.00000088  00000+0  00000+0 0  9991","line2":"2 49810  57.1703 342.3482 0000531 126.1506 231.6723  1.70475835 27770","category":"GPS"},{"name":"ISS (DESTINY)","line1":"1 26700U 01006B   26145.16420519  .00009873  00000+0  18471-3 0  9998","line2":"2 26700  51.6330  54.0759 0007478  95.4333 264.7509 15.49361343567996","category":"ISS"},{"name":"STARLINK-32469","line1":"1 61721U 24196Q   26145.13432912  .00000244  00000+0  20369-4 0  9995","line2":"2 61721  53.1613 106.0423 0001340  95.5742 264.5412 15.30189943 88861","category":"Starlink"},{"name":"STARLINK-4006","line1":"1 52676U 22053W   26145.08075002 -.00000601  00000+0 -19680-4 0  9994","line2":"2 52676  53.2145 171.1875 0001064  79.4793 280.6319 15.08838268222574","category":"Starlink"},{"name":"COSMOS 2251 DEB","line1":"1 34340U 93036PN  26104.98252164  .00000477  00000+0  35048-3 0  9995","line2":"2 34340  74.0747 102.0389 0289904 182.5868 207.8924 13.79997572859685","category":"Other"},{"name":"STARLINK-32813","line1":"1 62869U 25022R   26145.14981640  .00014640  00000+0  50523-3 0  9995","line2":"2 62869  53.1580 134.6746 0001824  32.3411 327.7701 15.30213396 73601","category":"Starlink"},{"name":"STARLINK-1918","line1":"1 46768U 20074AF  23362.33955454  .00005164  00000+0  36523-3 0  9995","line2":"2 46768  53.0553 338.5098 0001374  92.3476 267.7670 15.06410720175550","category":"Starlink"},{"name":"STARLINK-2243","line1":"1 48013U 21024AN  23362.13453210  .00016185  00000+0  11024-2 0  9990","line2":"2 48013  53.0547 304.4292 0001587  78.1649 281.9518 15.06417599153563","category":"Starlink"},{"name":"FENGYUN 1C DEB","line1":"1 37463U 99025EJH 23177.26671104  .00017059  00000+0  29709-2 0  9995","line2":"2 37463  98.7445 105.2072 0094922 305.2264  54.0079 14.65181472777800","category":"Weather"},{"name":"STARLINK-34059","line1":"1 63872U 25094J   26145.09086569 -.00000442  00000+0 -29294-4 0  9998","line2":"2 63872  70.0032  41.9785 0002626 270.8817  89.2041 14.98319318 58647","category":"Starlink"},{"name":"STARLINK-3257","line1":"1 50203U 21125AZ  26144.66725272 -.00000372  00000+0 -52544-5 0  9993","line2":"2 50203  53.2147 258.1312 0001509  89.7306 270.3859 15.08838798248267","category":"Starlink"},{"name":"AMPTE/CCE","line1":"1 15199U 84088A   26104.74254304 -.00000174  00000+0  00000+0 0  9996","line2":"2 15199   3.5252 266.4576 7638418  79.1659 241.4348  1.53319833199454","category":"Other"},{"name":"STARLINK-34003","line1":"1 63882U 25094U   26144.99457248  .00016642  00000+0  40446-3 0  9991","line2":"2 63882  70.0023 359.5461 0003339 270.6323  89.4475 15.41036032 59696","category":"Starlink"},{"name":"UNKNOWN","line1":"1 83975U          23321.96759515 -.00000154  00000+0  00000+0 0  9999","line2":"2 83975  19.3205 303.3367 7013251 254.2799  23.9531  2.15315352 66075","category":"Other"},{"name":"FLOCK 4H-21","line1":"1 66724U 25276BL  26145.18159286  .00005938  00000+0  27507-3 0  9993","line2":"2 66724  97.4187 219.3158 0003262  54.4394 305.7145 15.20465350 26198","category":"Other"},{"name":"STARLINK-34627","line1":"1 65016U 25161B   26144.81310400  .00018508  00000+0  63541-3 0  9990","line2":"2 65016  53.1595 300.6927 0000802  97.1319 262.9773 15.30201536 47097","category":"Starlink"},{"name":"KUIPER-00225","line1":"1 67784U 26030W   26145.17911838  .00001563  00000+0  25322-3 0  9990","line2":"2 67784  51.8970 219.6354 0002880 352.9732   7.1188 14.76431369 16717","category":"Other"},{"name":"FENGYUN 1C DEB","line1":"1 31157U 99025BHK 26104.67288257  .00000144  00000+0  79173-4 0  9999","line2":"2 31157  98.4939  88.6776 0098025 330.1401  29.4207 14.22739894987310","category":"Weather"},{"name":"FLOCK 4S-10","line1":"1 47523U 21006DP  24245.39793950  .09344020  24443-5  17029-2 0  9997","line2":"2 47523  97.3021 313.2758 0013947 270.5204  89.4493 16.32149668200913","category":"Other"},{"name":"STARLINK-35011","line1":"1 66082U 25235AA  26145.01316000  .00018435  00000+0  60402-3 0  9993","line2":"2 66082  53.1616 250.2715 0000523 113.4422 246.6635 15.31716933 34610","category":"Starlink"},{"name":"COSMOS 2618","line1":"1 68829U 26090D   26145.17667741  .00040096  00000+0  19483-3 0  9993","line2":"2 68829  96.6462  63.6964 0016983 124.1205 236.1679 15.82125579  5031","category":"Other"},{"name":"FENGYUN 1C DEB","line1":"1 32234U 99025CWG 26096.83002025  .00001650  00000+0  11702-2 0  9996","line2":"2 32234  98.5255 302.9712 0136524  16.8194 343.7430 13.94595324948138","category":"Weather"},{"name":"STARLINK-2633","line1":"1 48435U 21040H   26145.20277571  .00000971  00000+0  43051-4 0  9993","line2":"2 48435  53.1601 169.4032 0001241  80.4888 279.6254 15.31700267278577","category":"Starlink"},{"name":"STARLINK-30537","line1":"1 57991U 23153A   26144.97129456 -.00000442  00000+0 -65225-5 0  9991","line2":"2 57991  43.0067 356.1779 0002162 267.6947  92.3657 15.27574116146465","category":"Starlink"},{"name":"UCLSAT","line1":"1 42765U 17036A   23323.04012457  .14030009  24427-5  36327-3 0  9992","line2":"2 42765  97.0925   4.4532 0009179 243.7660 116.2700 16.45229930357542","category":"Other"},{"name":"YAOGAN-36 02B","line1":"1 54043U 22133B   26144.77463515  .00011382  00000+0  35956-3 0  9997","line2":"2 54043  34.9955 259.6284 0004424 232.8245 127.2069 15.32001905201252","category":"Other"},{"name":"STARLINK-34039","line1":"1 63946U 25098W   26145.15405747  .00006488  00000+0  55080-3 0  9999","line2":"2 63946  70.0014  81.7623 0002691 265.4483  94.6369 14.98348447 58001","category":"Starlink"},{"name":"UNKNOWN","line1":"1 87065U 99025    23358.31037301  .00004460  00000+0  53013-2 0  9997","line2":"2 87065  98.7142 308.8217 0336432 350.3796   9.1002 13.46419965419703","category":"Other"},{"name":"COSMOS 2251 DEB","line1":"1 35658U 93036ANZ 23177.01185456  .00012004  00000+0  22279-2 0  9998","line2":"2 35658  74.0059 296.6209 0012835 235.0477 124.9486 14.65223813745886","category":"Other"},{"name":"FOSSASA-2E23","line1":"1 66788U 25276ED  26145.19757223  .00008628  00000+0  39009-3 0  9998","line2":"2 66788  97.4246 219.2284 0005640 187.8580 172.2568 15.21161019 26937","category":"Other"},{"name":"STARLINK-34626","line1":"1 65082U 25167E   26145.05945562  .00027458  00000+0  63755-3 0  9990","line2":"2 65082  53.1593  29.0841 0001028  81.1143 278.9979 15.42189203 45210","category":"Starlink"},{"name":"STARLINK-36660","line1":"1 67848U 26033AD  26144.55409610  .00015943  00000+0  58734-3 0  9995","line2":"2 67848  43.0001 198.8569 0001985 269.0653  90.9972 15.27595954 16277","category":"Starlink"},{"name":"STARLINK-33948","line1":"1 66147U 25240B   26145.09161522  .00019823  00000+0  67957-3 0  9990","line2":"2 66147  53.1580  68.0953 0000771  98.8227 261.2861 15.30202999 33732","category":"Starlink"},{"name":"STARLINK-37527","line1":"1 68895U 26097A   26145.17916381 -.01077294  00000+0 -23925-1 0  9997","line2":"2 68895  97.2854 340.9238 0001501  82.0733 278.0687 15.46586917  3959","category":"Starlink"},{"name":"STARLINK-34113","line1":"1 64010U 25101S   26144.74406147  .00013617  00000+0  50335-3 0  9996","line2":"2 64010  42.9982 288.7189 0001129 272.6276  87.4446 15.27585364 58681","category":"Starlink"},{"name":"UNKNOWN","line1":"1 87942U          23361.12803689  .00035450  00000+0  22548-2 0  9991","line2":"2 87942  99.0613  63.7376 0098507 246.5566 112.5275 15.04721346539435","category":"Other"},{"name":"STARLINK-36087","line1":"1 66854U 25281G   26144.70350972  .00025244  00000+0  92405-3 0  9996","line2":"2 66854  42.9992 273.9499 0001050 275.4961  84.5771 15.27568525 27815","category":"Starlink"},{"name":"KUIPER-00108","line1":"1 65146U 25171Q   26145.08473694  .00002046  00000+0  29725-3 0  9996","line2":"2 65146  51.9010 182.8055 0000296  53.9244 306.1746 14.79941125 44179","category":"Other"},{"name":"STARLINK-36676","line1":"1 67912U 26036J   26145.06960777  .00013610  00000+0  50271-3 0  9990","line2":"2 67912  42.9959 173.8833 0001144  88.8966 271.2016 15.27610501 15400","category":"Starlink"},{"name":"STARLINK-35723","line1":"1 66211U 25244F   26144.71541171  .00013459  00000+0  46568-3 0  9990","line2":"2 66211  53.1606 236.4805 0001274  77.9112 282.2032 15.30202005 33292","category":"Starlink"},{"name":"STARLINK-37033","line1":"1 68959U 26099J   26145.16671295  .00080228  00000+0  14375-2 0  9999","line2":"2 68959  53.1588 270.7763 0001343  53.8378 252.0870 15.49275138  5011","category":"Starlink"},{"name":"STARLINK-11730 [DTC]","line1":"1 64074U 25107L   26144.60234392  .00175075  00000+0  13333-2 0  9991","line2":"2 64074  42.9998   0.9687 0000367 219.1982 140.8859 15.70946900 59237","category":"Starlink"}]}